start=new Date('2022-11-23T00:00:00.000Z').valueOf();
sats=[{"MEAN_MOTION_DOT":"0.00001005","ECCENTRICITY":"0.00016360","MEAN_ELEMENT_THEORY":"SGP4","TIME_SYSTEM":"UTC","ARG_OF_PERICENTER":"60.2140","EPHEMERIS_TYPE":"0","OBJECT_ID":"2020-006AW","TLE_LINE2":"2 45088  53.0549 249.1352 0001636  60.2140 299.9012 15.06399193155636","CLASSIFICATION_TYPE":"U","SITE":"AFETR","FILE":"3667274","REF_FRAME":"TEME","APOAPSIS":"548.349","OBJECT_TYPE":"PAYLOAD","ELEMENT_SET_NO":"999","GP_ID":"218468886","RA_OF_ASC_NODE":"249.1352","NORAD_CAT_ID":"45088","DECAY_DATE":null,"SEMIMAJOR_AXIS":"6925.351","PERIAPSIS":"546.083","MEAN_ANOMALY":"299.9012","PERIOD":"95.592","CENTER_NAME":"EARTH","REV_AT_EPOCH":"15563","MEAN_MOTION_DDOT":"0.0000000000000","BSTAR":"0.00008637600000","INCLINATION":"53.0549","COUNTRY_CODE":"US","OBJECT_NAME":"STARLINK-1183","LAUNCH_DATE":"2020-01-29","TLE_LINE1":"1 45088U 20006AW  22326.23286415  .00001005  00000-0  86376-4 0  9999","EPOCH":"2022-11-22T05:35:19.462560","RCS_SIZE":"LARGE","MEAN_MOTION":"15.06399193"},{"TLE_LINE1":"1 45089U 20006AX  22326.50563866 -.00000272  00000-0  64236-6 0  9997","LAUNCH_DATE":"2020-01-29","OBJECT_NAME":"STARLINK-1136","COUNTRY_CODE":"US","CENTER_NAME":"EARTH","MEAN_ANOMALY":"294.0531","PERIOD":"95.593","BSTAR":"0.00000064236000","MEAN_MOTION_DDOT":"0.0000000000000","REV_AT_EPOCH":"15568","INCLINATION":"53.0556","DECAY_DATE":null,"PERIAPSIS":"546.207","SEMIMAJOR_AXIS":"6925.367","RCS_SIZE":"LARGE","MEAN_MOTION":"15.06393899","EPOCH":"2022-11-22T12:08:07.180224","EPHEMERIS_TYPE":"0","TLE_LINE2":"2 45089  53.0556 248.0116 0001481  66.0613 294.0531 15.06393899155682","OBJECT_ID":"2020-006AX","ARG_OF_PERICENTER":"66.0613","MEAN_ELEMENT_THEORY":"SGP4","ECCENTRICITY":"0.00014810","TIME_SYSTEM":"UTC","MEAN_MOTION_DOT":"-0.00000272","RA_OF_ASC_NODE":"248.0116","NORAD_CAT_ID":"45089","APOAPSIS":"548.258","ELEMENT_SET_NO":"999","GP_ID":"218469638","OBJECT_TYPE":"PAYLOAD","FILE":"3667274","CLASSIFICATION_TYPE":"U","SITE":"AFETR","REF_FRAME":"TEME"},{"COUNTRY_CODE":"US","TLE_LINE1":"1 45090U 20006AY  22326.15083425  .00000215  00000-0  33332-4 0  9995","OBJECT_NAME":"STARLINK-1176","LAUNCH_DATE":"2020-01-29","DECAY_DATE":null,"PERIAPSIS":"546.161","SEMIMAJOR_AXIS":"6925.371","CENTER_NAME":"EARTH","MEAN_ANOMALY":"297.0328","PERIOD":"95.593","REV_AT_EPOCH":"15562","MEAN_MOTION_DDOT":"0.0000000000000","BSTAR":"0.00003333200000","INCLINATION":"53.0543","EPOCH":"2022-11-22T03:37:12.079200","MEAN_MOTION":"15.06392531","RCS_SIZE":"LARGE","ARG_OF_PERICENTER":"63.0820","EPHEMERIS_TYPE":"0","TLE_LINE2":"2 45090  53.0543 249.5143 0001553  63.0820 297.0328 15.06392531155626","OBJECT_ID":"2020-006AY","MEAN_MOTION_DOT":"0.00000215","ECCENTRICITY":"0.00015530","MEAN_ELEMENT_THEORY":"SGP4","TIME_SYSTEM":"UTC","APOAPSIS":"548.312","GP_ID":"218469375","ELEMENT_SET_NO":"999","OBJECT_TYPE":"PAYLOAD","RA_OF_ASC_NODE":"249.5143","NORAD_CAT_ID":"45090","FILE":"3667274","CLASSIFICATION_TYPE":"U","SITE":"AFETR","REF_FRAME":"TEME"},{"RCS_SIZE":"LARGE","MEAN_MOTION":"15.06401018","EPOCH":"2022-11-22T04:36:56.271744","LAUNCH_DATE":"2020-01-29","OBJECT_NAME":"STARLINK-1137","TLE_LINE1":"1 45092U 20006BA  22326.19231796  .00000302  00000-0  39173-4 0  9993","COUNTRY_CODE":"US","BSTAR":"0.00003917300000","MEAN_MOTION_DDOT":"0.0000000000000","REV_AT_EPOCH":"15597","INCLINATION":"53.0563","MEAN_ANOMALY":"313.5115","PERIOD":"95.592","CENTER_NAME":"EARTH","SEMIMAJOR_AXIS":"6925.345","PERIAPSIS":"546.003","DECAY_DATE":null,"NORAD_CAT_ID":"45092","RA_OF_ASC_NODE":"249.3403","OBJECT_TYPE":"PAYLOAD","GP_ID":"218468138","ELEMENT_SET_NO":"999","APOAPSIS":"548.418","REF_FRAME":"TEME","SITE":"AFETR","CLASSIFICATION_TYPE":"U","FILE":"3667274","OBJECT_ID":"2020-006BA","TLE_LINE2":"2 45092  53.0563 249.3403 0001744  46.6019 313.5115 15.06401018155973","EPHEMERIS_TYPE":"0","ARG_OF_PERICENTER":"46.6019","TIME_SYSTEM":"UTC","ECCENTRICITY":"0.00017440","MEAN_ELEMENT_THEORY":"SGP4","MEAN_MOTION_DOT":"0.00000302"},{"RCS_SIZE":"LARGE","MEAN_MOTION":"15.06402388","EPOCH":"2022-11-22T12:29:19.637952","CENTER_NAME":"EARTH","MEAN_ANOMALY":"304.6526","PERIOD":"95.592","REV_AT_EPOCH":"15567","MEAN_MOTION_DDOT":"0.0000000000000","BSTAR":"0.00010594000000","INCLINATION":"53.0532","DECAY_DATE":null,"PERIAPSIS":"545.940","SEMIMAJOR_AXIS":"6925.341","TLE_LINE1":"1 45093U 20006BB  22326.52036618  .00001297  00000-0  10594-3 0  9996","OBJECT_NAME":"STARLINK-1142","LAUNCH_DATE":"2020-01-29","COUNTRY_CODE":"US","FILE":"3667274","SITE":"AFETR","CLASSIFICATION_TYPE":"U","REF_FRAME":"TEME","RA_OF_ASC_NODE":"247.8593","NORAD_CAT_ID":"45093","APOAPSIS":"548.472","ELEMENT_SET_NO":"999","GP_ID":"218468387","OBJECT_TYPE":"PAYLOAD","ECCENTRICITY":"0.00018280","MEAN_ELEMENT_THEORY":"SGP4","TIME_SYSTEM":"UTC","MEAN_MOTION_DOT":"0.00001297","EPHEMERIS_TYPE":"0","TLE_LINE2":"2 45093  53.0532 247.8593 0001828  55.4636 304.6526 15.06402388155674","OBJECT_ID":"2020-006BB","ARG_OF_PERICENTER":"55.4636"},{"TLE_LINE2":"2 45094  53.0557 249.2760 0001740  51.7466 308.3680 15.06393500155630","OBJECT_ID":"2020-006BC","EPHEMERIS_TYPE":"0","ARG_OF_PERICENTER":"51.7466","TIME_SYSTEM":"UTC","MEAN_ELEMENT_THEORY":"SGP4","ECCENTRICITY":"0.00017400","MEAN_MOTION_DOT":"0.00000218","NORAD_CAT_ID":"45094","RA_OF_ASC_NODE":"249.2760","ELEMENT_SET_NO":"999","GP_ID":"218469139","OBJECT_TYPE":"PAYLOAD","APOAPSIS":"548.438","REF_FRAME":"TEME","FILE":"3667274","CLASSIFICATION_TYPE":"U","SITE":"AFETR","TLE_LINE1":"1 45094U 20006BC  22326.20243626  .00000218  00000-0  33563-4 0  9995","LAUNCH_DATE":"2020-01-29","OBJECT_NAME":"STARLINK-1146","COUNTRY_CODE":"US","MEAN_MOTION_DDOT":"0.0000000000000","REV_AT_EPOCH":"15563","BSTAR":"0.00003356300000","INCLINATION":"53.0557","CENTER_NAME":"EARTH","PERIOD":"95.593","MEAN_ANOMALY":"308.3680","PERIAPSIS":"546.028","SEMIMAJOR_AXIS":"6925.368","DECAY_DATE":null,"RCS_SIZE":"LARGE","MEAN_MOTION":"15.06393500","EPOCH":"2022-11-22T04:51:30.492864"},{"EPOCH":"2022-11-22T04:56:51.564768","MEAN_MOTION":"15.06294637","RCS_SIZE":"LARGE","COUNTRY_CODE":"US","OBJECT_NAME":"STARLINK-1147","LAUNCH_DATE":"2020-01-29","TLE_LINE1":"1 45095U 20006BD  22326.20615237  .00022057  00000-0  14992-2 0  9995","DECAY_DATE":null,"SEMIMAJOR_AXIS":"6925.671","PERIAPSIS":"545.649","PERIOD":"95.599","MEAN_ANOMALY":"300.3768","CENTER_NAME":"EARTH","MEAN_MOTION_DDOT":"0.0000000000000","BSTAR":"0.00149920000000","REV_AT_EPOCH":"15563","INCLINATION":"53.0560","APOAPSIS":"549.424","OBJECT_TYPE":"PAYLOAD","ELEMENT_SET_NO":"999","GP_ID":"218469875","RA_OF_ASC_NODE":"249.2523","NORAD_CAT_ID":"45095","CLASSIFICATION_TYPE":"U","SITE":"AFETR","FILE":"3667274","REF_FRAME":"TEME","ARG_OF_PERICENTER":"59.7490","EPHEMERIS_TYPE":"0","OBJECT_ID":"2020-006BD","TLE_LINE2":"2 45095  53.0560 249.2523 0002726  59.7490 300.3768 15.06294637155632","MEAN_MOTION_DOT":"0.00022057","MEAN_ELEMENT_THEORY":"SGP4","ECCENTRICITY":"0.00027260","TIME_SYSTEM":"UTC"},{"MEAN_MOTION":"15.06421625","RCS_SIZE":"LARGE","EPOCH":"2022-11-22T04:47:32.736480","BSTAR":"-0.00024228000000","MEAN_MOTION_DDOT":"0.0000000000000","REV_AT_EPOCH":"15562","INCLINATION":"53.0559","MEAN_ANOMALY":"297.6842","PERIOD":"95.591","CENTER_NAME":"EARTH","SEMIMAJOR_AXIS":"6925.282","PERIAPSIS":"545.980","DECAY_DATE":null,"OBJECT_NAME":"STARLINK-1152","LAUNCH_DATE":"2020-01-29","TLE_LINE1":"1 45096U 20006BE  22326.19968445 -.00003891  00000-0 -24228-3 0  9997","COUNTRY_CODE":"US","REF_FRAME":"TEME","SITE":"AFETR","CLASSIFICATION_TYPE":"U","FILE":"3667274","NORAD_CAT_ID":"45096","RA_OF_ASC_NODE":"249.2915","OBJECT_TYPE":"PAYLOAD","ELEMENT_SET_NO":"999","GP_ID":"218468637","APOAPSIS":"548.315","TIME_SYSTEM":"UTC","ECCENTRICITY":"0.00016860","MEAN_ELEMENT_THEORY":"SGP4","MEAN_MOTION_DOT":"-0.00003891","OBJECT_ID":"2020-006BE","TLE_LINE2":"2 45096  53.0559 249.2915 0001686  62.4318 297.6842 15.06421625155629","EPHEMERIS_TYPE":"0","ARG_OF_PERICENTER":"62.4318"},{"TIME_SYSTEM":"UTC","ECCENTRICITY":"0.00014820","MEAN_ELEMENT_THEORY":"SGP4","MEAN_MOTION_DOT":"0.00000377","OBJECT_ID":"2020-006BG","TLE_LINE2":"2 45098  53.0563 246.3967 0001482  64.2449 295.8693 15.06393825155725","EPHEMERIS_TYPE":"0","ARG_OF_PERICENTER":"64.2449","REF_FRAME":"TEME","CLASSIFICATION_TYPE":"U","SITE":"AFETR","FILE":"3667517","NORAD_CAT_ID":"45098","RA_OF_ASC_NODE":"246.3967","OBJECT_TYPE":"PAYLOAD","GP_ID":"218500512","ELEMENT_SET_NO":"999","APOAPSIS":"548.259","BSTAR":"0.00004423800000","MEAN_MOTION_DDOT":"0.0000000000000","REV_AT_EPOCH":"15572","INCLINATION":"53.0563","PERIOD":"95.593","MEAN_ANOMALY":"295.8693","CENTER_NAME":"EARTH","SEMIMAJOR_AXIS":"6925.367","PERIAPSIS":"546.206","DECAY_DATE":null,"OBJECT_NAME":"STARLINK-1184","LAUNCH_DATE":"2020-01-29","TLE_LINE1":"1 45098U 20006BG  22326.84473145  .00000377  00000-0  44238-4 0  9997","COUNTRY_CODE":"US","RCS_SIZE":"LARGE","MEAN_MOTION":"15.06393825","EPOCH":"2022-11-22T20:16:24.797280"},{"RA_OF_ASC_NODE":"249.2422","NORAD_CAT_ID":"45099","APOAPSIS":"548.312","OBJECT_TYPE":"PAYLOAD","ELEMENT_SET_NO":"999","GP_ID":"218469639","SITE":"AFETR","CLASSIFICATION_TYPE":"U","FILE":"3667274","REF_FRAME":"TEME","EPHEMERIS_TYPE":"0","OBJECT_ID":"2020-006BH","TLE_LINE2":"2 45099  53.0536 249.2422 0001623  51.4036 308.7099 15.06408364155630","ARG_OF_PERICENTER":"51.4036","MEAN_ELEMENT_THEORY":"SGP4","ECCENTRICITY":"0.00016230","TIME_SYSTEM":"UTC","MEAN_MOTION_DOT":"-0.00001785","MEAN_MOTION":"15.06408364","RCS_SIZE":"LARGE","EPOCH":"2022-11-22T05:08:47.069952","LAUNCH_DATE":"2020-01-29","OBJECT_NAME":"STARLINK-1186","TLE_LINE1":"1 45099U 20006BH  22326.21443368 -.00001785  00000-0 -10092-3 0  9999","COUNTRY_CODE":"US","PERIOD":"95.592","MEAN_ANOMALY":"308.7099","CENTER_NAME":"EARTH","MEAN_MOTION_DDOT":"0.0000000000000","BSTAR":"-0.00010092000000","REV_AT_EPOCH":"15563","INCLINATION":"53.0536","DECAY_DATE":null,"SEMIMAJOR_AXIS":"6925.323","PERIAPSIS":"546.064"}];
